STARLINK-2200
1 17414C 21006B   21326.11372442  .01249974  00000-0  10430-1 0  3266
2 17414  97.4939  26.3259 0001690 206.0022 192.2443 15.68798694    17
